[{"OBJECT_NAME":"METOP-B","OBJECT_ID":"2012-049A","EPOCH":"2026-03-14T14:00:17.903520","MEAN_MOTION":14.21446444,"ECCENTRICITY":0.00013123,"INCLINATION":98.6632,"RA_OF_ASC_NODE":126.9191,"ARG_OF_PERICENTER":239.8727,"MEAN_ANOMALY":120.232,"EPHEMERIS_TYPE":0,"CLASSIFICATION_TYPE":"U","NORAD_CAT_ID":38771,"ELEMENT_SET_NO":999,"REV_AT_EPOCH":69982,"BSTAR":7.7649019e-5,"MEAN_MOTION_DOT":1.26e-6,"MEAN_MOTION_DDOT":0},{"OBJECT_NAME":"SARAL","OBJECT_ID":"2013-009A","EPOCH":"2026-03-14T13:25:14.329632","MEAN_MOTION":14.32830463,"ECCENTRICITY":0.00017494,"INCLINATION":98.5559,"RA_OF_ASC_NODE":261.3146,"ARG_OF_PERICENTER":167.2628,"MEAN_ANOMALY":192.8601,"EPHEMERIS_TYPE":0,"CLASSIFICATION_TYPE":"U","NORAD_CAT_ID":39086,"ELEMENT_SET_NO":999,"REV_AT_EPOCH":68205,"BSTAR":7.1273065e-5,"MEAN_MOTION_DOT":1.51e-6,"MEAN_MOTION_DDOT":0},{"OBJECT_NAME":"METOP-C","OBJECT_ID":"2018-087A","EPOCH":"2026-03-14T14:35:08.739456","MEAN_MOTION":14.21498793,"ECCENTRICITY":0.00021958,"INCLINATION":98.6755,"RA_OF_ASC_NODE":134.8969,"ARG_OF_PERICENTER":93.1048,"MEAN_ANOMALY":267.0381,"EPHEMERIS_TYPE":0,"CLASSIFICATION_TYPE":"U","NORAD_CAT_ID":43689,"ELEMENT_SET_NO":999,"REV_AT_EPOCH":38139,"BSTAR":8.0259168e-5,"MEAN_MOTION_DOT":1.32e-6,"MEAN_MOTION_DDOT":0},{"OBJECT_NAME":"OTB-3-GAZELLE","OBJECT_ID":"2022-127A","EPOCH":"2026-03-14T12:38:05.065728","MEAN_MOTION":14.42637965,"ECCENTRICITY":0.00142644,"INCLINATION":98.3913,"RA_OF_ASC_NODE":66.6922,"ARG_OF_PERICENTER":112.2152,"MEAN_ANOMALY":248.0553,"EPHEMERIS_TYPE":0,"CLASSIFICATION_TYPE":"U","NORAD_CAT_ID":54023,"ELEMENT_SET_NO":999,"REV_AT_EPOCH":18071,"BSTAR":7.5912654e-5,"MEAN_MOTION_DOT":2.09e-6,"MEAN_MOTION_DDOT":0},{"OBJECT_NAME":"EOS-6 (OCEANSAT-3)","OBJECT_ID":"2022-158A","EPOCH":"2026-03-14T15:15:43.912224","MEAN_MOTION":14.470103,"ECCENTRICITY":4.474e-5,"INCLINATION":98.3482,"RA_OF_ASC_NODE":173.1159,"ARG_OF_PERICENTER":168.2635,"MEAN_ANOMALY":191.8568,"EPHEMERIS_TYPE":0,"CLASSIFICATION_TYPE":"U","NORAD_CAT_ID":54361,"ELEMENT_SET_NO":999,"REV_AT_EPOCH":17416,"BSTAR":0.00012327076,"MEAN_MOTION_DOT":4.05e-6,"MEAN_MOTION_DDOT":0},{"OBJECT_NAME":"KINEIS-1B","OBJECT_ID":"2024-114A","EPOCH":"2026-03-14T13:39:56.763936","MEAN_MOTION":14.8043316,"ECCENTRICITY":0.00035791,"INCLINATION":97.9921,"RA_OF_ASC_NODE":98.1829,"ARG_OF_PERICENTER":62.962,"MEAN_ANOMALY":297.1957,"EPHEMERIS_TYPE":0,"CLASSIFICATION_TYPE":"U","NORAD_CAT_ID":60079,"ELEMENT_SET_NO":999,"REV_AT_EPOCH":9340,"BSTAR":0.00019193605,"MEAN_MOTION_DOT":1.414e-5,"MEAN_MOTION_DDOT":0},{"OBJECT_NAME":"KINEIS-1C","OBJECT_ID":"2024-114C","EPOCH":"2026-03-14T14:28:34.311360","MEAN_MOTION":14.80422288,"ECCENTRICITY":0.00023771,"INCLINATION":97.9939,"RA_OF_ASC_NODE":98.0429,"ARG_OF_PERICENTER":110.893,"MEAN_ANOMALY":249.2536,"EPHEMERIS_TYPE":0,"CLASSIFICATION_TYPE":"U","NORAD_CAT_ID":60081,"ELEMENT_SET_NO":999,"REV_AT_EPOCH":9338,"BSTAR":0.00017865523,"MEAN_MOTION_DOT":1.312e-5,"MEAN_MOTION_DDOT":0},{"OBJECT_NAME":"KINEIS-1D","OBJECT_ID":"2024-114D","EPOCH":"2026-03-14T14:55:58.493856","MEAN_MOTION":14.76123912,"ECCENTRICITY":0.00026629,"INCLINATION":97.9965,"RA_OF_ASC_NODE":94.7659,"ARG_OF_PERICENTER":115.8986,"MEAN_ANOMALY":244.2498,"EPHEMERIS_TYPE":0,"CLASSIFICATION_TYPE":"U","NORAD_CAT_ID":60082,"ELEMENT_SET_NO":999,"REV_AT_EPOCH":9317,"BSTAR":0.00014167307,"MEAN_MOTION_DOT":9.27e-6,"MEAN_MOTION_DDOT":0},{"OBJECT_NAME":"KINEIS-1E","OBJECT_ID":"2024-114E","EPOCH":"2026-03-14T14:52:47.835840","MEAN_MOTION":14.80454731,"ECCENTRICITY":0.00024217,"INCLINATION":97.9899,"RA_OF_ASC_NODE":98.1391,"ARG_OF_PERICENTER":83.4703,"MEAN_ANOMALY":276.6784,"EPHEMERIS_TYPE":0,"CLASSIFICATION_TYPE":"U","NORAD_CAT_ID":60083,"ELEMENT_SET_NO":999,"REV_AT_EPOCH":9339,"BSTAR":0.00043479354,"MEAN_MOTION_DOT":3.273e-5,"MEAN_MOTION_DDOT":0},{"OBJECT_NAME":"KINEIS-1A","OBJECT_ID":"2024-114F","EPOCH":"2026-03-14T14:04:04.281024","MEAN_MOTION":14.80459554,"ECCENTRICITY":0.00047611,"INCLINATION":97.9903,"RA_OF_ASC_NODE":98.2288,"ARG_OF_PERICENTER":82.5204,"MEAN_ANOMALY":277.6548,"EPHEMERIS_TYPE":0,"CLASSIFICATION_TYPE":"U","NORAD_CAT_ID":60084,"ELEMENT_SET_NO":999,"REV_AT_EPOCH":9339,"BSTAR":0.00022832612,"MEAN_MOTION_DOT":1.693e-5,"MEAN_MOTION_DDOT":0},{"OBJECT_NAME":"KINEIS-3C","OBJECT_ID":"2024-172A","EPOCH":"2026-03-14T04:45:36.207072","MEAN_MOTION":14.72342688,"ECCENTRICITY":0.00034603,"INCLINATION":98.0289,"RA_OF_ASC_NODE":164.145,"ARG_OF_PERICENTER":91.323,"MEAN_ANOMALY":268.8374,"EPHEMERIS_TYPE":0,"CLASSIFICATION_TYPE":"U","NORAD_CAT_ID":61220,"ELEMENT_SET_NO":999,"REV_AT_EPOCH":7909,"BSTAR":0.00040919467,"MEAN_MOTION_DOT":2.539e-5,"MEAN_MOTION_DDOT":0},{"OBJECT_NAME":"KINEIS-3D","OBJECT_ID":"2024-172B","EPOCH":"2026-03-14T12:45:19.027008","MEAN_MOTION":14.72349311,"ECCENTRICITY":0.00025666,"INCLINATION":98.0292,"RA_OF_ASC_NODE":164.4855,"ARG_OF_PERICENTER":98.7685,"MEAN_ANOMALY":261.3813,"EPHEMERIS_TYPE":0,"CLASSIFICATION_TYPE":"U","NORAD_CAT_ID":61221,"ELEMENT_SET_NO":999,"REV_AT_EPOCH":7942,"BSTAR":0.00045436303,"MEAN_MOTION_DOT":2.826e-5,"MEAN_MOTION_DDOT":0},{"OBJECT_NAME":"KINEIS-3E","OBJECT_ID":"2024-172C","EPOCH":"2026-03-14T12:20:51.083232","MEAN_MOTION":14.72336377,"ECCENTRICITY":0.00016313,"INCLINATION":98.0288,"RA_OF_ASC_NODE":164.4632,"ARG_OF_PERICENTER":101.5467,"MEAN_ANOMALY":258.5924,"EPHEMERIS_TYPE":0,"CLASSIFICATION_TYPE":"U","NORAD_CAT_ID":61222,"ELEMENT_SET_NO":999,"REV_AT_EPOCH":7942,"BSTAR":0.00045398206,"MEAN_MOTION_DOT":2.822e-5,"MEAN_MOTION_DDOT":0},{"OBJECT_NAME":"KINEIS-3A","OBJECT_ID":"2024-172D","EPOCH":"2026-03-14T13:34:09.522336","MEAN_MOTION":14.72256912,"ECCENTRICITY":0.00025406,"INCLINATION":98.0335,"RA_OF_ASC_NODE":164.6029,"ARG_OF_PERICENTER":62.4352,"MEAN_ANOMALY":297.7113,"EPHEMERIS_TYPE":0,"CLASSIFICATION_TYPE":"U","NORAD_CAT_ID":61223,"ELEMENT_SET_NO":999,"REV_AT_EPOCH":7885,"BSTAR":0.00043424466,"MEAN_MOTION_DOT":2.693e-5,"MEAN_MOTION_DDOT":0},{"OBJECT_NAME":"KINEIS-3B","OBJECT_ID":"2024-172E","EPOCH":"2026-03-14T14:47:46.521888","MEAN_MOTION":14.72318241,"ECCENTRICITY":0.00031515,"INCLINATION":98.0278,"RA_OF_ASC_NODE":164.6852,"ARG_OF_PERICENTER":49.9536,"MEAN_ANOMALY":310.1948,"EPHEMERIS_TYPE":0,"CLASSIFICATION_TYPE":"U","NORAD_CAT_ID":61224,"ELEMENT_SET_NO":999,"REV_AT_EPOCH":7943,"BSTAR":0.00044598464,"MEAN_MOTION_DOT":2.771e-5,"MEAN_MOTION_DDOT":0},{"OBJECT_NAME":"KINEIS-5C","OBJECT_ID":"2024-219A","EPOCH":"2026-03-14T17:29:21.967008","MEAN_MOTION":14.72379659,"ECCENTRICITY":0.0002359,"INCLINATION":97.9589,"RA_OF_ASC_NODE":235.0792,"ARG_OF_PERICENTER":123.2851,"MEAN_ANOMALY":236.8583,"EPHEMERIS_TYPE":0,"CLASSIFICATION_TYPE":"U","NORAD_CAT_ID":62081,"ELEMENT_SET_NO":999,"REV_AT_EPOCH":6985,"BSTAR":0.00019848,"MEAN_MOTION_DOT":1.208e-5,"MEAN_MOTION_DDOT":0},{"OBJECT_NAME":"KINEIS-5D","OBJECT_ID":"2024-219B","EPOCH":"2026-03-14T15:02:44.486592","MEAN_MOTION":14.7235862,"ECCENTRICITY":0.00017348,"INCLINATION":97.9508,"RA_OF_ASC_NODE":234.9536,"ARG_OF_PERICENTER":135.6321,"MEAN_ANOMALY":224.5026,"EPHEMERIS_TYPE":0,"CLASSIFICATION_TYPE":"U","NORAD_CAT_ID":62082,"ELEMENT_SET_NO":999,"REV_AT_EPOCH":6984,"BSTAR":0.00019908599,"MEAN_MOTION_DOT":1.211e-5,"MEAN_MOTION_DDOT":0}]
